[{"OBJECT_NAME":"STARLINK-6196","OBJECT_ID":"2023-064AR","EPOCH":"2026-03-09T11:19:27.284448","MEAN_MOTION":14.98333961,"ECCENTRICITY":0.00036414,"INCLINATION":70.0005,"RA_OF_ASC_NODE":104.8614,"ARG_OF_PERICENTER":271.9465,"MEAN_ANOMALY":88.1277,"EPHEMERIS_TYPE":0,"CLASSIFICATION_TYPE":"U","NORAD_CAT_ID":56487,"ELEMENT_SET_NO":999,"REV_AT_EPOCH":15620,"BSTAR":0.00024760709,"MEAN_MOTION_DOT":2.863e-5,"MEAN_MOTION_DDOT":0},{"OBJECT_NAME":"BREEZE-M DEB [TANK]","OBJECT_ID":"2005-052C","EPOCH":"2026-03-08T23:18:30.555072","MEAN_MOTION":5.60221582,"ECCENTRICITY":0.50314645,"INCLINATION":49.5909,"RA_OF_ASC_NODE":51.519,"ARG_OF_PERICENTER":289.6323,"MEAN_ANOMALY":24.0864,"EPHEMERIS_TYPE":0,"CLASSIFICATION_TYPE":"U","NORAD_CAT_ID":28926,"ELEMENT_SET_NO":999,"REV_AT_EPOCH":38995,"BSTAR":0.0010950828,"MEAN_MOTION_DOT":0.00010446,"MEAN_MOTION_DDOT":0}]
